NORAD_CAT_ID,OBJECT_NAME,OBJECT_TYPE,EPOCH,MEAN_MOTION,ECCENTRICITY,INCLINATION,RA_OF_ASC_NODE,ARG_OF_PERICENTER,MEAN_ANOMALY,BSTAR,MEAN_MOTION_DOT,MEAN_MOTION_DDOT,TLE_LINE0,TLE_LINE1,TLE_LINE2,SEMIMAJOR_AXIS,PERIOD,APOGEE,PERIGEE,DECAYED
55421.0,STARLINK-5598,PAYLOAD,2024-08-21 16:58:30,14.98326003,0.0002909,69.9991,68.9632,270.0594,90.0232,1.2505e-06,-7.8e-07,0.0,0 STARLINK-5598,1 55421U 23014AG  24234.70729698 -.00000078  00000-0  12505-5 0  9994,2 55421  69.9991  68.9632 0002909 270.0594  90.0232 14.98326003 86931,6950.205,96.107,574.092,570.048,0.0
55421.0,STARLINK-5598,PAYLOAD,2024-08-21 20:10:46,14.98326231,0.0002906,69.9991,68.6264,269.8536,90.229,3.5611e-06,-5.1e-07,0.0,0 STARLINK-5598,1 55421U 23014AG  24234.84081701 -.00000051  00000-0  35611-5 0  9999,2 55421  69.9991  68.6264 0002906 269.8536  90.2290 14.98326231 86959,6950.205,96.107,574.089,570.05,0.0
